start=new Date('2022-10-05T00:00:00.000Z').valueOf();
sats=[{"CENTER_NAME":"EARTH","APOAPSIS":"548.142","MEAN_ELEMENT_THEORY":"SGP4","LAUNCH_DATE":"2020-01-07","ARG_OF_PERICENTER":"86.1263","CLASSIFICATION_TYPE":"U","INCLINATION":"53.0534","PERIAPSIS":"546.218","EPHEMERIS_TYPE":"0","ECCENTRICITY":"0.00013890","REF_FRAME":"TEME","RA_OF_ASC_NODE":"207.9087","RCS_SIZE":"LARGE","MEAN_MOTION_DOT":"0.00004027","OBJECT_NAME":"STARLINK-1104","TLE_LINE2":"2 44922  53.0534 207.9087 0001389  86.1263 273.9885 15.06410932151115","PERIOD":"95.591","COUNTRY_CODE":"US","BSTAR":"0.00028901000000","NORAD_CAT_ID":"44922","ELEMENT_SET_NO":"999","SEMIMAJOR_AXIS":"6925.315","MEAN_ANOMALY":"273.9885","MEAN_MOTION":"15.06410932","EPOCH":"2022-10-04T12:04:09.791904","GP_ID":"214155736","TLE_LINE1":"1 44922U 20001J   22277.50289111  .00004027  00000-0  28901-3 0  9997","OBJECT_ID":"2020-001J","FILE":"3591197","MEAN_MOTION_DDOT":"0.0000000000000","DECAY_DATE":null,"TIME_SYSTEM":"UTC","REV_AT_EPOCH":"15111","SITE":"AFETR","OBJECT_TYPE":"PAYLOAD"},{"CENTER_NAME":"EARTH","MEAN_ELEMENT_THEORY":"SGP4","APOAPSIS":"548.283","LAUNCH_DATE":"2020-01-07","ARG_OF_PERICENTER":"81.8316","EPHEMERIS_TYPE":"0","INCLINATION":"53.0530","PERIAPSIS":"546.049","CLASSIFICATION_TYPE":"U","RCS_SIZE":"LARGE","OBJECT_NAME":"STARLINK-1106","MEAN_MOTION_DOT":"0.00002108","RA_OF_ASC_NODE":"207.7939","TLE_LINE2":"2 44923  53.0530 207.7939 0001613  81.8316 278.2856 15.06415655151110","ECCENTRICITY":"0.00016130","REF_FRAME":"TEME","MEAN_ANOMALY":"278.2856","SEMIMAJOR_AXIS":"6925.301","PERIOD":"95.591","COUNTRY_CODE":"US","ELEMENT_SET_NO":"999","BSTAR":"0.00016033000000","NORAD_CAT_ID":"44923","GP_ID":"214155987","EPOCH":"2022-10-04T12:41:18.986208","MEAN_MOTION":"15.06415655","OBJECT_ID":"2020-001K","TLE_LINE1":"1 44923U 20001K   22277.52869197  .00002108  00000-0  16033-3 0  9999","FILE":"3591197","SITE":"AFETR","OBJECT_TYPE":"PAYLOAD","TIME_SYSTEM":"UTC","DECAY_DATE":null,"MEAN_MOTION_DDOT":"0.0000000000000","REV_AT_EPOCH":"15111"},{"ARG_OF_PERICENTER":"90.1844","LAUNCH_DATE":"2020-01-07","APOAPSIS":"548.187","MEAN_ELEMENT_THEORY":"SGP4","CENTER_NAME":"EARTH","REF_FRAME":"TEME","ECCENTRICITY":"0.00013660","TLE_LINE2":"2 44924  53.0542 207.8507 0001366  90.1844 269.9301 15.06390983151118","RCS_SIZE":"LARGE","MEAN_MOTION_DOT":"0.00005768","OBJECT_NAME":"STARLINK-1111","RA_OF_ASC_NODE":"207.8507","PERIAPSIS":"546.295","INCLINATION":"53.0542","CLASSIFICATION_TYPE":"U","EPHEMERIS_TYPE":"0","MEAN_MOTION":"15.06390983","EPOCH":"2022-10-04T12:25:24.207456","GP_ID":"214156722","BSTAR":"0.00040589000000","COUNTRY_CODE":"US","ELEMENT_SET_NO":"999","NORAD_CAT_ID":"44924","PERIOD":"95.593","MEAN_ANOMALY":"269.9301","SEMIMAJOR_AXIS":"6925.376","REV_AT_EPOCH":"15111","TIME_SYSTEM":"UTC","DECAY_DATE":null,"MEAN_MOTION_DDOT":"0.0000000000000","OBJECT_TYPE":"PAYLOAD","SITE":"AFETR","FILE":"3591197","OBJECT_ID":"2020-001L","TLE_LINE1":"1 44924U 20001L   22277.51764129  .00005768  00000-0  40589-3 0  9996"},{"SITE":"AFETR","OBJECT_TYPE":"PAYLOAD","DECAY_DATE":null,"TIME_SYSTEM":"UTC","MEAN_MOTION_DDOT":"0.0000000000000","REV_AT_EPOCH":"15111","OBJECT_ID":"2020-001M","TLE_LINE1":"1 44925U 20001M   22277.53237731  .00002952  00000-0  21695-3 0  9992","FILE":"3591197","GP_ID":"214154987","EPOCH":"2022-10-04T12:46:37.399584","MEAN_MOTION":"15.06407496","MEAN_ANOMALY":"277.7285","SEMIMAJOR_AXIS":"6925.326","PERIOD":"95.592","COUNTRY_CODE":"US","BSTAR":"0.00021695000000","NORAD_CAT_ID":"44925","ELEMENT_SET_NO":"999","RCS_SIZE":"LARGE","OBJECT_NAME":"STARLINK-1112","MEAN_MOTION_DOT":"0.00002952","RA_OF_ASC_NODE":"207.7662","TLE_LINE2":"2 44925  53.0557 207.7662 0001399  82.3863 277.7285 15.06407496151112","ECCENTRICITY":"0.00013990","REF_FRAME":"TEME","EPHEMERIS_TYPE":"0","PERIAPSIS":"546.222","INCLINATION":"53.0557","CLASSIFICATION_TYPE":"U","LAUNCH_DATE":"2020-01-07","ARG_OF_PERICENTER":"82.3863","CENTER_NAME":"EARTH","MEAN_ELEMENT_THEORY":"SGP4","APOAPSIS":"548.159"},{"NORAD_CAT_ID":"44926","COUNTRY_CODE":"US","BSTAR":"0.00024581000000","ELEMENT_SET_NO":"999","PERIOD":"95.643","MEAN_ANOMALY":"258.9332","SEMIMAJOR_AXIS":"6927.801","MEAN_MOTION":"15.05600290","EPOCH":"2022-10-04T12:48:02.113920","GP_ID":"214155236","FILE":"3591197","OBJECT_ID":"2020-001N","TLE_LINE1":"1 44926U 20001N   22277.53335780  .00003306  00000-0  24581-3 0  9997","REV_AT_EPOCH":"15181","DECAY_DATE":null,"TIME_SYSTEM":"UTC","MEAN_MOTION_DDOT":"0.0000000000000","OBJECT_TYPE":"PAYLOAD","SITE":"AFETR","MEAN_ELEMENT_THEORY":"SGP4","APOAPSIS":"550.703","CENTER_NAME":"EARTH","ARG_OF_PERICENTER":"101.1824","LAUNCH_DATE":"2020-01-07","INCLINATION":"52.9993","PERIAPSIS":"548.629","CLASSIFICATION_TYPE":"U","EPHEMERIS_TYPE":"0","REF_FRAME":"TEME","ECCENTRICITY":"0.00014970","TLE_LINE2":"2 44926  52.9993 207.7836 0001497 101.1824 258.9332 15.05600290151811","RCS_SIZE":"LARGE","OBJECT_NAME":"STARLINK-1113","MEAN_MOTION_DOT":"0.00003306","RA_OF_ASC_NODE":"207.7836"},{"EPHEMERIS_TYPE":"0","CLASSIFICATION_TYPE":"U","PERIAPSIS":"546.214","INCLINATION":"53.0541","RA_OF_ASC_NODE":"209.2020","RCS_SIZE":"LARGE","OBJECT_NAME":"STARLINK-1114","MEAN_MOTION_DOT":"0.00004298","TLE_LINE2":"2 44927  53.0541 209.2020 0001389  80.3997 279.7149 15.06412230151075","ECCENTRICITY":"0.00013890","REF_FRAME":"TEME","CENTER_NAME":"EARTH","APOAPSIS":"548.138","MEAN_ELEMENT_THEORY":"SGP4","LAUNCH_DATE":"2020-01-07","ARG_OF_PERICENTER":"80.3997","TLE_LINE1":"1 44927U 20001P   22277.21170088  .00004298  00000-0  30718-3 0  9991","OBJECT_ID":"2020-001P","FILE":"3591197","SITE":"AFETR","OBJECT_TYPE":"PAYLOAD","MEAN_MOTION_DDOT":"0.0000000000000","DECAY_DATE":null,"TIME_SYSTEM":"UTC","REV_AT_EPOCH":"15107","MEAN_ANOMALY":"279.7149","SEMIMAJOR_AXIS":"6925.311","PERIOD":"95.591","BSTAR":"0.00030718000000","COUNTRY_CODE":"US","NORAD_CAT_ID":"44927","ELEMENT_SET_NO":"999","EPOCH":"2022-10-04T05:04:50.956032","GP_ID":"214156487","MEAN_MOTION":"15.06412230"},{"MEAN_MOTION":"15.06416487","GP_ID":"214156223","EPOCH":"2022-10-04T12:57:14.590080","PERIOD":"95.591","COUNTRY_CODE":"US","BSTAR":"0.00027420000000","NORAD_CAT_ID":"44928","ELEMENT_SET_NO":"999","MEAN_ANOMALY":"285.8720","SEMIMAJOR_AXIS":"6925.298","MEAN_MOTION_DDOT":"0.0000000000000","DECAY_DATE":null,"TIME_SYSTEM":"UTC","REV_AT_EPOCH":"15112","SITE":"AFETR","OBJECT_TYPE":"PAYLOAD","TLE_LINE1":"1 44928U 20001Q   22277.53975220  .00003807  00000-0  27420-3 0  9999","OBJECT_ID":"2020-001Q","FILE":"3591197","LAUNCH_DATE":"2020-01-07","ARG_OF_PERICENTER":"74.2445","CENTER_NAME":"EARTH","APOAPSIS":"548.266","MEAN_ELEMENT_THEORY":"SGP4","ECCENTRICITY":"0.00015920","REF_FRAME":"TEME","RA_OF_ASC_NODE":"207.7339","MEAN_MOTION_DOT":"0.00003807","RCS_SIZE":"LARGE","OBJECT_NAME":"STARLINK-1119","TLE_LINE2":"2 44928  53.0532 207.7339 0001592  74.2445 285.8720 15.06416487151125","CLASSIFICATION_TYPE":"U","INCLINATION":"53.0532","PERIAPSIS":"546.061","EPHEMERIS_TYPE":"0"},{"OBJECT_TYPE":"PAYLOAD","SITE":"AFETR","REV_AT_EPOCH":"15106","DECAY_DATE":null,"TIME_SYSTEM":"UTC","MEAN_MOTION_DDOT":"0.0000000000000","FILE":"3591197","OBJECT_ID":"2020-001R","TLE_LINE1":"1 44929U 20001R   22277.19327401  .00010539  00000-0  72490-3 0  9991","EPOCH":"2022-10-04T04:38:18.874464","GP_ID":"214155487","MEAN_MOTION":"15.06424608","SEMIMAJOR_AXIS":"6925.273","MEAN_ANOMALY":"280.0322","BSTAR":"0.00072490000000","COUNTRY_CODE":"US","ELEMENT_SET_NO":"999","NORAD_CAT_ID":"44929","PERIOD":"95.591","TLE_LINE2":"2 44929  53.0539 209.2902 0001283  80.0811 280.0322 15.06424608151067","MEAN_MOTION_DOT":"0.00010539","RCS_SIZE":"LARGE","OBJECT_NAME":"STARLINK-1121","RA_OF_ASC_NODE":"209.2902","REF_FRAME":"TEME","ECCENTRICITY":"0.00012830","EPHEMERIS_TYPE":"0","INCLINATION":"53.0539","PERIAPSIS":"546.250","CLASSIFICATION_TYPE":"U","ARG_OF_PERICENTER":"80.0811","LAUNCH_DATE":"2020-01-07","APOAPSIS":"548.027","MEAN_ELEMENT_THEORY":"SGP4","CENTER_NAME":"EARTH"},{"COUNTRY_CODE":"US","BSTAR":"0.00035098000000","ELEMENT_SET_NO":"999","NORAD_CAT_ID":"44930","PERIOD":"95.591","SEMIMAJOR_AXIS":"6925.305","MEAN_ANOMALY":"272.9078","MEAN_MOTION":"15.06414209","GP_ID":"214188376","EPOCH":"2022-10-04T14:59:18.996288","FILE":"3591597","TLE_LINE1":"1 44930U 20001S   22277.62452542  .00004952  00000-0  35098-3 0  9991","OBJECT_ID":"2020-001S","REV_AT_EPOCH":"15113","MEAN_MOTION_DDOT":"0.0000000000000","TIME_SYSTEM":"UTC","DECAY_DATE":null,"OBJECT_TYPE":"PAYLOAD","SITE":"AFETR","APOAPSIS":"548.126","MEAN_ELEMENT_THEORY":"SGP4","CENTER_NAME":"EARTH","ARG_OF_PERICENTER":"87.2069","LAUNCH_DATE":"2020-01-07","CLASSIFICATION_TYPE":"U","INCLINATION":"53.0545","PERIAPSIS":"546.214","EPHEMERIS_TYPE":"0","REF_FRAME":"TEME","ECCENTRICITY":"0.00013800","TLE_LINE2":"2 44930  53.0545 207.3664 0001380  87.2069 272.9078 15.06414209151134","RA_OF_ASC_NODE":"207.3664","RCS_SIZE":"LARGE","MEAN_MOTION_DOT":"0.00004952","OBJECT_NAME":"STARLINK-1123"},{"OBJECT_ID":"2020-001T","TLE_LINE1":"1 44931U 20001T   22277.11830532  .00002020  00000-0  13874-3 0  9997","FILE":"3591197","SITE":"AFETR","OBJECT_TYPE":"PAYLOAD","TIME_SYSTEM":"UTC","DECAY_DATE":null,"MEAN_MOTION_DDOT":"0.0000000000000","REV_AT_EPOCH":"15192","MEAN_ANOMALY":"271.2478","SEMIMAJOR_AXIS":"6912.786","PERIOD":"95.332","BSTAR":"0.00013874000000","COUNTRY_CODE":"US","NORAD_CAT_ID":"44931","ELEMENT_SET_NO":"999","GP_ID":"214155988","EPOCH":"2022-10-04T02:50:21.579648","MEAN_MOTION":"15.10508263","EPHEMERIS_TYPE":"0","INCLINATION":"53.0533","PERIAPSIS":"533.665","CLASSIFICATION_TYPE":"U","RCS_SIZE":"LARGE","OBJECT_NAME":"STARLINK-1128","MEAN_MOTION_DOT":"0.00002020","RA_OF_ASC_NODE":"201.0571","TLE_LINE2":"2 44931  53.0533 201.0571 0001426  88.8676 271.2478 15.10508263151924","ECCENTRICITY":"0.00014260","REF_FRAME":"TEME","CENTER_NAME":"EARTH","MEAN_ELEMENT_THEORY":"SGP4","APOAPSIS":"535.637","LAUNCH_DATE":"2020-01-07","ARG_OF_PERICENTER":"88.8676"}];
